[[{"address_id":1001,"address_1":"8321 Baltimore Ave","address_2":"7777 Baltimore Ave","city":"College Park","state":"MD","zip_code":"20740","restaurant_id":1},{"address_id":1002,"address_1":"7777 Baltimore Ave","address_2":"","city":"College Park","state":"MD","zip_code":"20740","restaurant_id":2},{"address_id":1003,"address_1":"8150 Baltimore Ave","address_2":"","city":"College Park","state":"MD","zip_code":"20740","restaurant_id":3},{"address_id":1004,"address_1":"8150 Baltimore Ave","address_2":"","city":"College Park","state":"MD","zip_code":"20740","restaurant_id":4},{"address_id":1005,"address_1":"7419 Baltimore Ave","address_2":"","city":"College Park","state":"MD","zip_code":"20740","restaurant_id":5},{"address_id":1006,"address_1":"8145 Baltimore Ave","address_2":"Ste M","city":"College Park","state":"MD","zip_code":"20740","restaurant_id":6},{"address_id":1007,"address_1":"8145 Baltimore Ave","address_2":"Ste A","city":"College Park","state":"MD","zip_code":"20740","restaurant_id":7},{"address_id":1008,"address_1":"4656 Hotel Dr","address_2":"","city":"College Park","state":"MD","zip_code":"20740","restaurant_id":8},{"address_id":1009,"address_1":"4700 Riverdale Rd","address_2":"","city":"Riverdale Park","state":"MD","zip_code":"20737","restaurant_id":9},{"address_id":1010,"address_1":"9206 Baltimore Ave","address_2":"","city":"College Park","state":"MD","zip_code":"20740","restaurant_id":10},{"address_id":1011,"address_1":"7313 E Baltimore Ave","address_2":"Ste E","city":"College Park","state":"MD","zip_code":"20740","restaurant_id":11},{"address_id":1012,"address_1":"7313 Baltimore Ave","address_2":"Ste H","city":"College Park","state":"MD","zip_code":"20740","restaurant_id":12},{"address_id":1013,"address_1":"7406 Baltimore Ave","address_2":"","city":"College Park","state":"MD","zip_code":"20740","restaurant_id":13},{"address_id":1014,"address_1":"7423 Baltimore Ave","address_2":"","city":"College Park","state":"MD","zip_code":"20740","restaurant_id":14},{"address_id":1015,"address_1":"4511 College Ave","address_2":"","city":"College Park","state":"MD","zip_code":"20740","restaurant_id":15},{"address_id":1016,"address_1":"4440 Van Buren St","address_2":"","city":"Riverdale Park","state":"MD","zip_code":"20782","restaurant_id":16},{"address_id":1017,"address_1":"8147 Baltimore Ave","address_2":"","city":"College Park","state":"MD","zip_code":"20740","restaurant_id":17},{"address_id":1018,"address_1":"8700 Baltimore Ave","address_2":"","city":"College Park","state":"MD","zip_code":"20740","restaurant_id":18},{"address_id":1019,"address_1":"5331 Baltimore Ave","address_2":"","city":"Hyattsville/College Park","state":"MD","zip_code":"20781","restaurant_id":19},{"address_id":1020,"address_1":"5501 Baltimore Ave","address_2":"","city":"Hyattsville/College Park","state":"MD","zip_code":"20740","restaurant_id":20},{"address_id":1021,"address_1":" 9917 Rhode Island Ave","address_2":"","city":"College Park","state":"MD","zip_code":"20740","restaurant_id":21},{"address_id":1022,"address_1":"7323 Baltimore Ave","address_2":"","city":"College Park","state":"MD","zip_code":"20740","restaurant_id":22},{"address_id":1023,"address_1":"7777 Baltimore Ave","address_2":"","city":"College Park","state":"MD","zip_code":"20740","restaurant_id":23},{"address_id":1024,"address_1":"8503 Baltimore Ave","address_2":"","city":"College Park","state":"MD","zip_code":"20740","restaurant_id":24},{"address_id":1025,"address_1":"6501 America Blvd ","address_2":"","city":"Hyattsville","state":"MD","zip_code":"20782","restaurant_id":25},{"address_id":1026,"address_1":"8150 Baltimore Ave","address_2":"","city":"College Park","state":"MD","zip_code":"20740","restaurant_id":26},{"address_id":1027,"address_1":"5124 Baltimore Ave","address_2":"","city":"Hyattsville","state":"MD","zip_code":"20781","restaurant_id":27},{"address_id":1028,"address_1":"1201A Adele","address_2":"H Stamp Student Union ","city":"College Park","state":"MD","zip_code":"20742","restaurant_id":28},{"address_id":1029,"address_1":"5020 Edmonston Rd ","address_2":"","city":"Hyattsville","state":"MD","zip_code":"20781","restaurant_id":29},{"address_id":1030,"address_1":"8503 Baltimore Ave","address_2":"","city":"College Park","state":"MD","zip_code":"20740","restaurant_id":30},{"address_id":1032,"address_1":"anything","address_2":"anythin2","city":"city","state":"MD","zip_code":"111","restaurant_id":1}],[{"address_id":1001,"address_1":"8321 Baltimore Ave","address_2":"7777 Baltimore Ave","city":"College Park","state":"MD","zip_code":"20740","restaurant_id":1},{"address_id":1002,"address_1":"7777 Baltimore Ave","address_2":"","city":"College Park","state":"MD","zip_code":"20740","restaurant_id":2},{"address_id":1003,"address_1":"8150 Baltimore Ave","address_2":"","city":"College Park","state":"MD","zip_code":"20740","restaurant_id":3},{"address_id":1004,"address_1":"8150 Baltimore Ave","address_2":"","city":"College Park","state":"MD","zip_code":"20740","restaurant_id":4},{"address_id":1005,"address_1":"7419 Baltimore Ave","address_2":"","city":"College Park","state":"MD","zip_code":"20740","restaurant_id":5},{"address_id":1006,"address_1":"8145 Baltimore Ave","address_2":"Ste M","city":"College Park","state":"MD","zip_code":"20740","restaurant_id":6},{"address_id":1007,"address_1":"8145 Baltimore Ave","address_2":"Ste A","city":"College Park","state":"MD","zip_code":"20740","restaurant_id":7},{"address_id":1008,"address_1":"4656 Hotel Dr","address_2":"","city":"College Park","state":"MD","zip_code":"20740","restaurant_id":8},{"address_id":1009,"address_1":"4700 Riverdale Rd","address_2":"","city":"Riverdale Park","state":"MD","zip_code":"20737","restaurant_id":9},{"address_id":1010,"address_1":"9206 Baltimore Ave","address_2":"","city":"College Park","state":"MD","zip_code":"20740","restaurant_id":10},{"address_id":1011,"address_1":"7313 E Baltimore Ave","address_2":"Ste E","city":"College Park","state":"MD","zip_code":"20740","restaurant_id":11},{"address_id":1012,"address_1":"7313 Baltimore Ave","address_2":"Ste H","city":"College Park","state":"MD","zip_code":"20740","restaurant_id":12},{"address_id":1013,"address_1":"7406 Baltimore Ave","address_2":"","city":"College Park","state":"MD","zip_code":"20740","restaurant_id":13},{"address_id":1014,"address_1":"7423 Baltimore Ave","address_2":"","city":"College Park","state":"MD","zip_code":"20740","restaurant_id":14},{"address_id":1015,"address_1":"4511 College Ave","address_2":"","city":"College Park","state":"MD","zip_code":"20740","restaurant_id":15},{"address_id":1016,"address_1":"4440 Van Buren St","address_2":"","city":"Riverdale Park","state":"MD","zip_code":"20782","restaurant_id":16},{"address_id":1017,"address_1":"8147 Baltimore Ave","address_2":"","city":"College Park","state":"MD","zip_code":"20740","restaurant_id":17},{"address_id":1018,"address_1":"8700 Baltimore Ave","address_2":"","city":"College Park","state":"MD","zip_code":"20740","restaurant_id":18},{"address_id":1019,"address_1":"5331 Baltimore Ave","address_2":"","city":"Hyattsville/College Park","state":"MD","zip_code":"20781","restaurant_id":19},{"address_id":1020,"address_1":"5501 Baltimore Ave","address_2":"","city":"Hyattsville/College Park","state":"MD","zip_code":"20740","restaurant_id":20},{"address_id":1021,"address_1":" 9917 Rhode Island Ave","address_2":"","city":"College Park","state":"MD","zip_code":"20740","restaurant_id":21},{"address_id":1022,"address_1":"7323 Baltimore Ave","address_2":"","city":"College Park","state":"MD","zip_code":"20740","restaurant_id":22},{"address_id":1023,"address_1":"7777 Baltimore Ave","address_2":"","city":"College Park","state":"MD","zip_code":"20740","restaurant_id":23},{"address_id":1024,"address_1":"8503 Baltimore Ave","address_2":"","city":"College Park","state":"MD","zip_code":"20740","restaurant_id":24},{"address_id":1025,"address_1":"6501 America Blvd ","address_2":"","city":"Hyattsville","state":"MD","zip_code":"20782","restaurant_id":25},{"address_id":1026,"address_1":"8150 Baltimore Ave","address_2":"","city":"College Park","state":"MD","zip_code":"20740","restaurant_id":26},{"address_id":1027,"address_1":"5124 Baltimore Ave","address_2":"","city":"Hyattsville","state":"MD","zip_code":"20781","restaurant_id":27},{"address_id":1028,"address_1":"1201A Adele","address_2":"H Stamp Student Union ","city":"College Park","state":"MD","zip_code":"20742","restaurant_id":28},{"address_id":1029,"address_1":"5020 Edmonston Rd ","address_2":"","city":"Hyattsville","state":"MD","zip_code":"20781","restaurant_id":29},{"address_id":1030,"address_1":"8503 Baltimore Ave","address_2":"","city":"College Park","state":"MD","zip_code":"20740","restaurant_id":30},{"address_id":1032,"address_1":"anything","address_2":"anythin2","city":"city","state":"MD","zip_code":"111","restaurant_id":1}]]